[
    {
        "Altitude(m)": 624790.8384878318,
        "Argument of Periapsis(deg)": 0.0,
        "Eccentricity": 0.0,
        "Inclination(deg)": 60.0,
        "Latitude(deg)": -59.147247243669995,
        "Longitude(deg)": -78.96536722106126,
        "Mean Anomaly(deg)": -81.81820000000002,
        "RAAN(deg)": 95.0,
        "Satellite Name": "Test1 435",
        "Satellite Number": 435,
        "Semi-Major Axis(m)": 6980739.136638005,
        "Time(s)": 0
    },
    {
        "Altitude(m)": 624737.4935685968,
        "Argument of Periapsis(deg)": 0.00010418945913296404,
        "Eccentricity": 0.0,
        "Inclination(deg)": 60.0,
        "Latitude(deg)": -58.99470205224804,
        "Longitude(deg)": -77.84586108597745,
        "Mean Anomaly(deg)": -81.19809385453819,
        "RAAN(deg)": 94.99957995086027,
        "Satellite Name": "Test1 435",
        "Satellite Number": 435,
        "Semi-Major Axis(m)": 6980739.136638005,
        "Time(s)": 10
    }
]